{"fetched_at":"2026-07-13T07:48:48.526Z","source":"https://celestrak.org/NORAD/elements/gp.php?NAME=TIGER&FORMAT=JSON","constellation":"oq-technology","records":[{"OBJECT_NAME":"TIGER-8","OBJECT_ID":"2024-043Y","EPOCH":"2026-07-12T09:56:57.094944","CLASSIFICATION_TYPE":"U","MEAN_MOTION":15.45136803,"ECCENTRICITY":0.00088472,"INCLINATION":97.5565,"RA_OF_ASC_NODE":343.048,"ARG_OF_PERICENTER":111.2315,"MEAN_ANOMALY":248.9879,"EPHEMERIS_TYPE":0,"NORAD_CAT_ID":59120,"ELEMENT_SET_NO":999,"REV_AT_EPOCH":13168,"BSTAR":0.00013250138,"MEAN_MOTION_DOT":0.00006188,"MEAN_MOTION_DDOT":0},{"OBJECT_NAME":"TIGER-7","OBJECT_ID":"2024-043AV","EPOCH":"2026-07-12T09:24:00.239616","CLASSIFICATION_TYPE":"U","MEAN_MOTION":15.49307925,"ECCENTRICITY":0.00068449,"INCLINATION":97.5503,"RA_OF_ASC_NODE":345.5155,"ARG_OF_PERICENTER":84.7377,"MEAN_ANOMALY":275.4655,"EPHEMERIS_TYPE":0,"NORAD_CAT_ID":59141,"ELEMENT_SET_NO":999,"REV_AT_EPOCH":13187,"BSTAR":0.00013757497,"MEAN_MOTION_DOT":0.0000743,"MEAN_MOTION_DDOT":0}]}
