TIGER-8                 
1 59120U 24043Y   26193.41454971  .00006188  00000+0  13250-3 0  9992
2 59120  97.5565 343.0480 0008847 111.2315 248.9879 15.45136803131681
TIGER-7                 
1 59141U 24043AV  26193.39166944  .00007430  00000+0  13757-3 0  9995
2 59141  97.5503 345.5155 0006844  84.7377 275.4655 15.49307925131876
